{"type": "FeatureCollection", "features": [ {"type": "Feature", "properties": {"norad_id": 34464, "name": "COSMOS 2251 DEB", "group": "cosmos-2251-debris", "lat": -8.840576499911629, "lon": -82.0167426399625, "alt_km": 491.3599274960425, "timestamp": "2025-12-04T15:47:54.493554+00:00", "meta": {"OBJECT_NAME": "COSMOS 2251 DEB", "OBJECT_ID": "1993-036TH", "EPOCH": "2025-12-03T09:03:23.315616", "MEAN_MOTION": 15.24915222, "ECCENTRICITY": 0.00173278, "INCLINATION": 73.9895, "RA_OF_ASC_NODE": 98.1357, "ARG_OF_PERICENTER": 268.9386, "MEAN_ANOMALY": 90.9829, "EPHEMERIS_TYPE": 0, "CLASSIFICATION_TYPE": "U", "NORAD_CAT_ID": 34464, "ELEMENT_SET_NO": 999, "REV_AT_EPOCH": 89697, "BSTAR": 0.0038136435, "MEAN_MOTION_DOT": 0.00096566, "MEAN_MOTION_DDOT": 0}, "tle": {"line1": "1 34464U 93036TH  25337.37735319  .00096566  00000+0  38136-2 0  9994", "line2": "2 34464  73.9895  98.1357 0017327 268.9386  90.9829 15.24915222896978"}}, "geometry": {"type": "Point", "coordinates": [-82.0167426399625, -8.840576499911629]}}, {"type": "Feature", "properties": {"norad_id": 34468, "name": "COSMOS 2251 DEB", "group": "cosmos-2251-debris", "lat": 3.4556694645582455, "lon": -48.647846926185046, "alt_km": 747.1031146250516, "timestamp": "2025-12-04T15:47:54.493564+00:00", "meta": {"OBJECT_NAME": "COSMOS 2251 DEB", "OBJECT_ID": "1993-036TM", "EPOCH": "2025-12-04T05:01:38.279712", "MEAN_MOTION": 14.47590669, "ECCENTRICITY": 0.00762935, "INCLINATION": 74.0115, "RA_OF_ASC_NODE": 133.1847, "ARG_OF_PERICENTER": 279.8137, "MEAN_ANOMALY": 79.4413, "EPHEMERIS_TYPE": 0, "CLASSIFICATION_TYPE": "U", "NORAD_CAT_ID": 34468, "ELEMENT_SET_NO": 999, "REV_AT_EPOCH": 88338, "BSTAR": 0.0005785575, "MEAN_MOTION_DOT": 2.18e-05, "MEAN_MOTION_DDOT": 0}, "tle": {"line1": "1 34468U 93036TM  25338.20947083  .00002180  00000+0  57856-3 0  9994", "line2": "2 34468  74.0115 133.1847 0076293 279.8137  79.4413 14.47590669883385"}}, "geometry": {"type": "Point", "coordinates": [-48.647846926185046, 3.4556694645582455]}}, {"type": "Feature", "properties": {"norad_id": 34472, "name": "COSMOS 2251 DEB", "group": "cosmos-2251-debris", "lat": -64.36955692353132, "lon": 74.93705235981031, "alt_km": 834.3458306601151, "timestamp": "2025-12-04T15:47:54.493574+00:00", "meta": {"OBJECT_NAME": "COSMOS 2251 DEB", "OBJECT_ID": "1993-036TR", "EPOCH": "2025-12-03T15:36:16.702848", "MEAN_MOTION": 13.70310012, "ECCENTRICITY": 0.03271295, "INCLINATION": 74.0821, "RA_OF_ASC_NODE": 113.0928, "ARG_OF_PERICENTER": 246.0443, "MEAN_ANOMALY": 110.6103, "EPHEMERIS_TYPE": 0, "CLASSIFICATION_TYPE": "U", "NORAD_CAT_ID": 34472, "ELEMENT_SET_NO": 999, "REV_AT_EPOCH": 83602, "BSTAR": 0.0015293427, "MEAN_MOTION_DOT": 1.946e-05, "MEAN_MOTION_DDOT": 0}, "tle": {"line1": "1 34472U 93036TR  25337.65019332  .00001946  00000+0  15293-2 0  9991", "line2": "2 34472  74.0821 113.0928 0327129 246.0443 110.6103 13.70310012836024"}}, "geometry": {"type": "Point", "coordinates": [74.93705235981031, -64.36955692353132]}}, {"type": "Feature", "properties": {"norad_id": 34474, "name": "COSMOS 2251 DEB", "group": "cosmos-2251-debris", "lat": 73.2783400980872, "lon": 88.45712648088451, "alt_km": 751.8621263329196, "timestamp": "2025-12-04T15:47:54.493584+00:00", "meta": {"OBJECT_NAME": "COSMOS 2251 DEB", "OBJECT_ID": "1993-036TT", "EPOCH": "2025-12-04T06:54:33.238944", "MEAN_MOTION": 14.06330655, "ECCENTRICITY": 0.01978061, "INCLINATION": 74.0784, "RA_OF_ASC_NODE": 340.9326, "ARG_OF_PERICENTER": 56.9639, "MEAN_ANOMALY": 322.3194, "EPHEMERIS_TYPE": 0, "CLASSIFICATION_TYPE": "U", "NORAD_CAT_ID": 34474, "ELEMENT_SET_NO": 999, "REV_AT_EPOCH": 85390, "BSTAR": 0.0030360569, "MEAN_MOTION_DOT": 5.958e-05, "MEAN_MOTION_DDOT": 0}, "tle": {"line1": "1 34474U 93036TT  25338.28788471  .00005958  00000+0  30361-2 0  9990", "line2": "2 34474  74.0784 340.9326 0197806  56.9639 322.3194 14.06330655853902"}}, "geometry": {"type": "Point", "coordinates": [88.45712648088451, 73.2783400980872]}}, {"type": "Feature", "properties": {"norad_id": 34476, "name": "COSMOS 2251 DEB", "group": "cosmos-2251-debris", "lat": 54.79742015490292, "lon": 120.11283808253998, "alt_km": 988.0969894061454, "timestamp": "2025-12-04T15:47:54.493595+00:00", "meta": {"OBJECT_NAME": "COSMOS 2251 DEB", "OBJECT_ID": "1993-036TV", "EPOCH": "2025-12-03T08:15:02.261088", "MEAN_MOTION": 13.81885878, "ECCENTRICITY": 0.0319026, "INCLINATION": 74.0059, "RA_OF_ASC_NODE": 98.3392, "ARG_OF_PERICENTER": 319.9917, "MEAN_ANOMALY": 37.8086, "EPHEMERIS_TYPE": 0, "CLASSIFICATION_TYPE": "U", "NORAD_CAT_ID": 34476, "ELEMENT_SET_NO": 999, "REV_AT_EPOCH": 83508, "BSTAR": 0.0036576, "MEAN_MOTION_DOT": 5.76e-05, "MEAN_MOTION_DDOT": 0}, "tle": {"line1": "1 34476U 93036TV  25337.34377617  .00005760  00000+0  36576-2 0  9999", "line2": "2 34476  74.0059  98.3392 0319026 319.9917  37.8086 13.81885878835088"}}, "geometry": {"type": "Point", "coordinates": [120.11283808253998, 54.79742015490292]}}, {"type": "Feature", "properties": {"norad_id": 34477, "name": "COSMOS 2251 DEB", "group": "cosmos-2251-debris", "lat": -61.67097382276277, "lon": 52.69249550107847, "alt_km": 659.2699616151149, "timestamp": "2025-12-04T15:47:54.493605+00:00", "meta": {"OBJECT_NAME": "COSMOS 2251 DEB", "OBJECT_ID": "1993-036TW", "EPOCH": "2025-12-04T08:08:19.877280", "MEAN_MOTION": 14.56763185, "ECCENTRICITY": 0.00769163, "INCLINATION": 73.9791, "RA_OF_ASC_NODE": 85.5074, "ARG_OF_PERICENTER": 274.1917, "MEAN_ANOMALY": 146.1725, "EPHEMERIS_TYPE": 0, "CLASSIFICATION_TYPE": "U", "NORAD_CAT_ID": 34477, "ELEMENT_SET_NO": 999, "REV_AT_EPOCH": 88503, "BSTAR": 0.0020469735, "MEAN_MOTION_DOT": 9.515e-05, "MEAN_MOTION_DDOT": 0}, "tle": {"line1": "1 34477U 93036TW  25338.33911895  .00009515  00000+0  20470-2 0  9990", "line2": "2 34477  73.9791  85.5074 0076916 274.1917 146.1725 14.56763185885038"}}, "geometry": {"type": "Point", "coordinates": [52.69249550107847, -61.67097382276277]}}, {"type": "Feature", "properties": {"norad_id": 34478, "name": "COSMOS 2251 DEB", "group": "cosmos-2251-debris", "lat": 40.0885535088802, "lon": -170.43284749876486, "alt_km": 550.5119342076159, "timestamp": "2025-12-04T15:47:54.493615+00:00", "meta": {"OBJECT_NAME": "COSMOS 2251 DEB", "OBJECT_ID": "1993-036TX", "EPOCH": "2025-12-04T05:58:11.654400", "MEAN_MOTION": 15.06937311, "ECCENTRICITY": 0.00371388, "INCLINATION": 74.044, "RA_OF_ASC_NODE": 24.3433, "ARG_OF_PERICENTER": 248.625, "MEAN_ANOMALY": 188.8799, "EPHEMERIS_TYPE": 0, "CLASSIFICATION_TYPE": "U", "NORAD_CAT_ID": 34478, "ELEMENT_SET_NO": 999, "REV_AT_EPOCH": 88845, "BSTAR": 0.0064597528, "MEAN_MOTION_DOT": 0.00099411, "MEAN_MOTION_DDOT": 0}, "tle": {"line1": "1 34478U 93036TX  25338.24874600  .00099411  00000+0  64598-2 0  9996", "line2": "2 34478  74.0440  24.3433 0037138 248.6250 188.8799 15.06937311888454"}}, "geometry": {"type": "Point", "coordinates": [-170.43284749876486, 40.0885535088802]}}, {"type": "Feature", "properties": {"norad_id": 34481, "name": "COSMOS 2251 DEB", "group": "cosmos-2251-debris", "lat": 63.018467863827524, "lon": -146.09296994806263, "alt_km": 810.7297277814414, "timestamp": "2025-12-04T15:47:54.493626+00:00", "meta": {"OBJECT_NAME": "COSMOS 2251 DEB", "OBJECT_ID": "1993-036UA", "EPOCH": "2025-12-04T07:09:24.348672", "MEAN_MOTION": 14.32498705, "ECCENTRICITY": 0.00709393, "INCLINATION": 73.9803, "RA_OF_ASC_NODE": 68.9209, "ARG_OF_PERICENTER": 244.7768, "MEAN_ANOMALY": 171.641, "EPHEMERIS_TYPE": 0, "CLASSIFICATION_TYPE": "U", "NORAD_CAT_ID": 34481, "ELEMENT_SET_NO": 999, "REV_AT_EPOCH": 87328, "BSTAR": 0.0015806174, "MEAN_MOTION_DOT": 4.38e-05, "MEAN_MOTION_DDOT": 0}, "tle": {"line1": "1 34481U 93036UA  25338.29819848  .00004380  00000+0  15806-2 0  9997", "line2": "2 34481  73.9803  68.9209 0070939 244.7768 171.6410 14.32498705873283"}}, "geometry": {"type": "Point", "coordinates": [-146.09296994806263, 63.018467863827524]}}, {"type": "Feature", "properties": {"norad_id": 34482, "name": "COSMOS 2251 DEB", "group": "cosmos-2251-debris", "lat": -55.11037219186286, "lon": -144.9974004288472, "alt_km": 639.1382344277472, "timestamp": "2025-12-04T15:47:54.493636+00:00", "meta": {"OBJECT_NAME": "COSMOS 2251 DEB", "OBJECT_ID": "1993-036UB", "EPOCH": "2025-12-04T03:32:33.273312", "MEAN_MOTION": 14.68865373, "ECCENTRICITY": 0.00456638, "INCLINATION": 74.0378, "RA_OF_ASC_NODE": 240.2234, "ARG_OF_PERICENTER": 301.718, "MEAN_ANOMALY": 180.5339, "EPHEMERIS_TYPE": 0, "CLASSIFICATION_TYPE": "U", "NORAD_CAT_ID": 34482, "ELEMENT_SET_NO": 999, "REV_AT_EPOCH": 88061, "BSTAR": 0.0046992268, "MEAN_MOTION_DOT": 0.00027989, "MEAN_MOTION_DDOT": 0}, "tle": {"line1": "1 34482U 93036UB  25338.14760733  .00027989  00000+0  46992-2 0  9990", "line2": "2 34482  74.0378 240.2234 0045663 301.7180 180.5339 14.68865373880616"}}, "geometry": {"type": "Point", "coordinates": [-144.9974004288472, -55.11037219186286]}}, {"type": "Feature", "properties": {"norad_id": 34544, "name": "COSMOS 2251 DEB", "group": "cosmos-2251-debris", "lat": -73.47534572110786, "lon": 140.5830458918588, "alt_km": 804.6875382361322, "timestamp": "2025-12-04T15:47:54.493646+00:00", "meta": {"OBJECT_NAME": "COSMOS 2251 DEB", "OBJECT_ID": "1993-036UE", "EPOCH": "2025-12-03T22:35:53.720736", "MEAN_MOTION": 13.5465559, "ECCENTRICITY": 0.03846414, "INCLINATION": 73.9152, "RA_OF_ASC_NODE": 218.2731, "ARG_OF_PERICENTER": 248.325, "MEAN_ANOMALY": 129.7835, "EPHEMERIS_TYPE": 0, "CLASSIFICATION_TYPE": "U", "NORAD_CAT_ID": 34544, "ELEMENT_SET_NO": 999, "REV_AT_EPOCH": 82763, "BSTAR": 0.00035061873, "MEAN_MOTION_DOT": 3.61e-06, "MEAN_MOTION_DDOT": 0}, "tle": {"line1": "1 34544U 93036UE  25337.94159399  .00000361  00000+0  35062-3 0  9998", "line2": "2 34544  73.9152 218.2731 0384641 248.3250 129.7835 13.54655590827637"}}, "geometry": {"type": "Point", "coordinates": [140.5830458918588, -73.47534572110786]}}]}